STARLINK-33762          
1 63442U 25069K   26068.42762166  .00011321  00000+0  39408-3 0  9991
2 63442  53.1573 143.7692 0001241  65.4547 294.6583 15.30174607 53364
SCS-01 D                
1 63985U 25100D   26068.75607686  .00032471  00000+0  10528-2 0  9990
2 63985  97.3730 145.4097 0006346 266.2302  93.8214 15.31902149 45621
